FLOCK 4G-25             
1 62646U 25009AP  26186.18032975  .00018967  00000+0  65768-3 0  9993
2 62646  97.4007 268.1828 0001409 188.5116 171.6101 15.29857854 81675
FLOCK 4G-23             
1 62647U 25009AQ  26186.18568705  .00071446  00000+0  21451-2 0  9990
2 62647  97.3925 267.8567 0002581 193.0673 167.0503 15.34167443 81681
FLOCK 4G-34             
1 62650U 25009AT  26185.79072554  .00018056  00000+0  63086-3 0  9991
2 62650  97.3959 267.2924 0001345 188.5013 171.6204 15.29620853 81601
FLOCK 4G-21             
1 62651U 25009AU  26185.66424845  .00083375  00000+0  26498-2 0  9993
2 62651  97.3986 268.1197 0002145 221.2308 138.8772 15.32297591 81636
FLOCK 4G-31             
1 62652U 25009AV  26186.01558308  .00018264  00000+0  64172-3 0  9993
2 62652  97.3964 267.4902 0000968 174.3948 185.7304 15.29434048 81636
FLOCK 4G-4              
1 62659U 25009BC  26186.13458788  .00064974  00000+0  21136-2 0  9995
2 62659  97.3940 267.3870 0003784 222.9337 137.1610 15.31633538139252
FLOCK 4G-6              
1 62660U 25009BD  26186.13823776  .00015394  00000+0  53472-3 0  9991
2 62660  97.3934 267.4615 0001978 248.3520 111.7510 15.29844045139244
FLOCK 4G-2              
1 62661U 25009BE  26186.13410139  .00017683  00000+0  60733-3 0  9998
2 62661  97.4005 268.0851 0002833 245.4226 114.6720 15.30181702139270
FLOCK 4G-5              
1 62663U 25009BG  26185.67528143  .00019164  00000+0  64613-3 0  9990
2 62663  97.4023 268.0163 0002520 221.2802 138.8248 15.30764443 81619
FLOCK 4G-1              
1 62666U 25009BK  26185.46406873  .00018761  00000+0  64729-3 0  9995
2 62666  97.4018 267.3970 0003094 243.7379 116.3544 15.30018830 81554
FLOCK 4G-14             
1 62667U 25009BL  26186.01535691  .00018993  00000+0  66405-3 0  9999
2 62667  97.4019 267.7497 0003199 235.7860 124.3078 15.29583411 81625
FLOCK 4G-10             
1 62670U 25009BP  26186.22318455  .00017555  00000+0  61205-3 0  9999
2 62670  97.3920 267.2661 0002883 259.9430 100.1485 15.29692791139290
FLOCK 4G-36             
1 62675U 25009BU  26186.02128133  .00017047  00000+0  59516-3 0  9992
2 62675  97.4008 267.6776 0003420 242.4202 117.6691 15.29653530 81629
FLOCK 4G-15             
1 62678U 25009BX  26186.15964033  .00018300  00000+0  63673-3 0  9998
2 62678  97.4010 267.9564 0003617 237.1659 122.9233 15.29749437139298
FLOCK 4G-30             
1 62679U 25009BY  26185.47560828  .00068606  00000+0  21187-2 0  9994
2 62679  97.3919 266.7493 0003248 230.5932 129.5023 15.33282931139190
FLOCK 4G-18             
1 62680U 25009BZ  26185.73926378  .00069463  00000+0  22584-2 0  9995
2 62680  97.4003 267.4228 0005174 247.9554 112.1138 15.31623146139227
