{"fetched_at":"2026-07-05T17:36:11.010Z","source":"https://celestrak.org/NORAD/elements/gp.php?GROUP=planet&FORMAT=JSON","constellation":"superdove","records":[{"OBJECT_NAME":"FLOCK 4G-25","OBJECT_ID":"2025-009AP","EPOCH":"2026-07-05T04:19:40.490400","CLASSIFICATION_TYPE":"U","MEAN_MOTION":15.29857854,"ECCENTRICITY":0.00014098,"INCLINATION":97.4007,"RA_OF_ASC_NODE":268.1828,"ARG_OF_PERICENTER":188.5116,"MEAN_ANOMALY":171.6101,"EPHEMERIS_TYPE":0,"NORAD_CAT_ID":62646,"ELEMENT_SET_NO":999,"REV_AT_EPOCH":8167,"BSTAR":0.00065768081,"MEAN_MOTION_DOT":0.00018967,"MEAN_MOTION_DDOT":0},{"OBJECT_NAME":"FLOCK 4G-23","OBJECT_ID":"2025-009AQ","EPOCH":"2026-07-05T04:27:23.361120","CLASSIFICATION_TYPE":"U","MEAN_MOTION":15.34167443,"ECCENTRICITY":0.00025818,"INCLINATION":97.3925,"RA_OF_ASC_NODE":267.8567,"ARG_OF_PERICENTER":193.0673,"MEAN_ANOMALY":167.0503,"EPHEMERIS_TYPE":0,"NORAD_CAT_ID":62647,"ELEMENT_SET_NO":999,"REV_AT_EPOCH":8168,"BSTAR":0.0021450667,"MEAN_MOTION_DOT":0.00071446,"MEAN_MOTION_DDOT":0},{"OBJECT_NAME":"FLOCK 4G-34","OBJECT_ID":"2025-009AT","EPOCH":"2026-07-04T18:58:38.686656","CLASSIFICATION_TYPE":"U","MEAN_MOTION":15.29620853,"ECCENTRICITY":0.00013452,"INCLINATION":97.3959,"RA_OF_ASC_NODE":267.2924,"ARG_OF_PERICENTER":188.5013,"MEAN_ANOMALY":171.6204,"EPHEMERIS_TYPE":0,"NORAD_CAT_ID":62650,"ELEMENT_SET_NO":999,"REV_AT_EPOCH":8160,"BSTAR":0.00063085556,"MEAN_MOTION_DOT":0.00018056,"MEAN_MOTION_DDOT":0},{"OBJECT_NAME":"FLOCK 4G-21","OBJECT_ID":"2025-009AU","EPOCH":"2026-07-04T15:56:31.066080","CLASSIFICATION_TYPE":"U","MEAN_MOTION":15.32297591,"ECCENTRICITY":0.00021453,"INCLINATION":97.3986,"RA_OF_ASC_NODE":268.1197,"ARG_OF_PERICENTER":221.2308,"MEAN_ANOMALY":138.8772,"EPHEMERIS_TYPE":0,"NORAD_CAT_ID":62651,"ELEMENT_SET_NO":999,"REV_AT_EPOCH":8163,"BSTAR":0.0026498368,"MEAN_MOTION_DOT":0.00083375,"MEAN_MOTION_DDOT":0},{"OBJECT_NAME":"FLOCK 4G-31","OBJECT_ID":"2025-009AV","EPOCH":"2026-07-05T00:22:26.378112","CLASSIFICATION_TYPE":"U","MEAN_MOTION":15.29434048,"ECCENTRICITY":0.00009681,"INCLINATION":97.3964,"RA_OF_ASC_NODE":267.4902,"ARG_OF_PERICENTER":174.3948,"MEAN_ANOMALY":185.7304,"EPHEMERIS_TYPE":0,"NORAD_CAT_ID":62652,"ELEMENT_SET_NO":999,"REV_AT_EPOCH":8163,"BSTAR":0.00064172251,"MEAN_MOTION_DOT":0.00018264,"MEAN_MOTION_DDOT":0},{"OBJECT_NAME":"FLOCK 4G-4","OBJECT_ID":"2025-009BC","EPOCH":"2026-07-05T03:13:48.392832","CLASSIFICATION_TYPE":"U","MEAN_MOTION":15.31633538,"ECCENTRICITY":0.00037841,"INCLINATION":97.394,"RA_OF_ASC_NODE":267.387,"ARG_OF_PERICENTER":222.9337,"MEAN_ANOMALY":137.161,"EPHEMERIS_TYPE":0,"NORAD_CAT_ID":62659,"ELEMENT_SET_NO":999,"REV_AT_EPOCH":13925,"BSTAR":0.0021135574,"MEAN_MOTION_DOT":0.00064974,"MEAN_MOTION_DDOT":0},{"OBJECT_NAME":"FLOCK 4G-6","OBJECT_ID":"2025-009BD","EPOCH":"2026-07-05T03:19:03.742464","CLASSIFICATION_TYPE":"U","MEAN_MOTION":15.29844045,"ECCENTRICITY":0.00019784,"INCLINATION":97.3934,"RA_OF_ASC_NODE":267.4615,"ARG_OF_PERICENTER":248.352,"MEAN_ANOMALY":111.751,"EPHEMERIS_TYPE":0,"NORAD_CAT_ID":62660,"ELEMENT_SET_NO":999,"REV_AT_EPOCH":13924,"BSTAR":0.00053472395,"MEAN_MOTION_DOT":0.00015394,"MEAN_MOTION_DDOT":0},{"OBJECT_NAME":"FLOCK 4G-2","OBJECT_ID":"2025-009BE","EPOCH":"2026-07-05T03:13:06.360096","CLASSIFICATION_TYPE":"U","MEAN_MOTION":15.30181702,"ECCENTRICITY":0.00028335,"INCLINATION":97.4005,"RA_OF_ASC_NODE":268.0851,"ARG_OF_PERICENTER":245.4226,"MEAN_ANOMALY":114.672,"EPHEMERIS_TYPE":0,"NORAD_CAT_ID":62661,"ELEMENT_SET_NO":999,"REV_AT_EPOCH":13927,"BSTAR":0.00060732511,"MEAN_MOTION_DOT":0.00017683,"MEAN_MOTION_DDOT":0},{"OBJECT_NAME":"FLOCK 4G-5","OBJECT_ID":"2025-009BG","EPOCH":"2026-07-04T16:12:24.315552","CLASSIFICATION_TYPE":"U","MEAN_MOTION":15.30764443,"ECCENTRICITY":0.00025204,"INCLINATION":97.4023,"RA_OF_ASC_NODE":268.0163,"ARG_OF_PERICENTER":221.2802,"MEAN_ANOMALY":138.8248,"EPHEMERIS_TYPE":0,"NORAD_CAT_ID":62663,"ELEMENT_SET_NO":999,"REV_AT_EPOCH":8161,"BSTAR":0.00064613413,"MEAN_MOTION_DOT":0.00019164,"MEAN_MOTION_DDOT":0},{"OBJECT_NAME":"FLOCK 4G-1","OBJECT_ID":"2025-009BK","EPOCH":"2026-07-04T11:08:15.538272","CLASSIFICATION_TYPE":"U","MEAN_MOTION":15.3001883,"ECCENTRICITY":0.00030946,"INCLINATION":97.4018,"RA_OF_ASC_NODE":267.397,"ARG_OF_PERICENTER":243.7379,"MEAN_ANOMALY":116.3544,"EPHEMERIS_TYPE":0,"NORAD_CAT_ID":62666,"ELEMENT_SET_NO":999,"REV_AT_EPOCH":8155,"BSTAR":0.0006472906,"MEAN_MOTION_DOT":0.00018761,"MEAN_MOTION_DDOT":0},{"OBJECT_NAME":"FLOCK 4G-14","OBJECT_ID":"2025-009BL","EPOCH":"2026-07-05T00:22:06.837024","CLASSIFICATION_TYPE":"U","MEAN_MOTION":15.29583411,"ECCENTRICITY":0.00031993,"INCLINATION":97.4019,"RA_OF_ASC_NODE":267.7497,"ARG_OF_PERICENTER":235.786,"MEAN_ANOMALY":124.3078,"EPHEMERIS_TYPE":0,"NORAD_CAT_ID":62667,"ELEMENT_SET_NO":999,"REV_AT_EPOCH":8162,"BSTAR":0.00066405291,"MEAN_MOTION_DOT":0.00018993,"MEAN_MOTION_DDOT":0},{"OBJECT_NAME":"FLOCK 4G-10","OBJECT_ID":"2025-009BP","EPOCH":"2026-07-05T05:21:23.145120","CLASSIFICATION_TYPE":"U","MEAN_MOTION":15.29692791,"ECCENTRICITY":0.00028836,"INCLINATION":97.392,"RA_OF_ASC_NODE":267.2661,"ARG_OF_PERICENTER":259.943,"MEAN_ANOMALY":100.1485,"EPHEMERIS_TYPE":0,"NORAD_CAT_ID":62670,"ELEMENT_SET_NO":999,"REV_AT_EPOCH":13929,"BSTAR":0.00061205395,"MEAN_MOTION_DOT":0.00017555,"MEAN_MOTION_DDOT":0},{"OBJECT_NAME":"FLOCK 4G-36","OBJECT_ID":"2025-009BU","EPOCH":"2026-07-05T00:30:38.706912","CLASSIFICATION_TYPE":"U","MEAN_MOTION":15.2965353,"ECCENTRICITY":0.000342,"INCLINATION":97.4008,"RA_OF_ASC_NODE":267.6776,"ARG_OF_PERICENTER":242.4202,"MEAN_ANOMALY":117.6691,"EPHEMERIS_TYPE":0,"NORAD_CAT_ID":62675,"ELEMENT_SET_NO":999,"REV_AT_EPOCH":8162,"BSTAR":0.00059515885,"MEAN_MOTION_DOT":0.00017047,"MEAN_MOTION_DDOT":0},{"OBJECT_NAME":"FLOCK 4G-15","OBJECT_ID":"2025-009BX","EPOCH":"2026-07-05T03:49:52.924512","CLASSIFICATION_TYPE":"U","MEAN_MOTION":15.29749437,"ECCENTRICITY":0.00036174,"INCLINATION":97.401,"RA_OF_ASC_NODE":267.9564,"ARG_OF_PERICENTER":237.1659,"MEAN_ANOMALY":122.9233,"EPHEMERIS_TYPE":0,"NORAD_CAT_ID":62678,"ELEMENT_SET_NO":999,"REV_AT_EPOCH":13929,"BSTAR":0.0006367293,"MEAN_MOTION_DOT":0.000183,"MEAN_MOTION_DDOT":0},{"OBJECT_NAME":"FLOCK 4G-30","OBJECT_ID":"2025-009BY","EPOCH":"2026-07-04T11:24:52.555392","CLASSIFICATION_TYPE":"U","MEAN_MOTION":15.33282931,"ECCENTRICITY":0.00032489,"INCLINATION":97.3919,"RA_OF_ASC_NODE":266.7493,"ARG_OF_PERICENTER":230.5932,"MEAN_ANOMALY":129.5023,"EPHEMERIS_TYPE":0,"NORAD_CAT_ID":62679,"ELEMENT_SET_NO":999,"REV_AT_EPOCH":13919,"BSTAR":0.0021187039,"MEAN_MOTION_DOT":0.00068606,"MEAN_MOTION_DDOT":0},{"OBJECT_NAME":"FLOCK 4G-18","OBJECT_ID":"2025-009BZ","EPOCH":"2026-07-04T17:44:32.390592","CLASSIFICATION_TYPE":"U","MEAN_MOTION":15.31623146,"ECCENTRICITY":0.00051746,"INCLINATION":97.4003,"RA_OF_ASC_NODE":267.4228,"ARG_OF_PERICENTER":247.9554,"MEAN_ANOMALY":112.1138,"EPHEMERIS_TYPE":0,"NORAD_CAT_ID":62680,"ELEMENT_SET_NO":999,"REV_AT_EPOCH":13922,"BSTAR":0.0022584116,"MEAN_MOTION_DOT":0.00069463,"MEAN_MOTION_DDOT":0}]}
